#dP2020  4 12  0  0  0.00000000      96 __u+U ITR00 FIT  IAC
## 2101      0.00000000   900.00000000 58951 0.0000000000000
+  117   C01C02C03C05C06C07C08C09C10C11C12C13C14C16C19C20C21
+        C22C23C24C25C26C27C28C29C30C32C33C34C35C36C37C43C46
+        E01E02E03E04E05E07E08E09E11E12E13E14E15E18E19E21E24
+        E25E26E27E30E31E33E36G01G02G03G04G05G06G07G08G09G10
+        G11G12G13G14G15G16G17G18G19G20G21G22G23G24G25G26G27
+        G28G29G30G31G32J01J02J03J07R01R02R03R04R05R07R08R09
+        R11R12R13R14R15R16R17R18R19R20R21R22R23R24R26  0  0
++        14 13 13 13 10 10 10  9  9  9  9  9  9 10  9  9  9
++         9  9  9  9  9  9  9  9  9  9  9  9 10  9  9 10 11
++         7  7  7  7  8  6  6  8  7  7  6  7  7  7  7  7  7
++         6  6  6  7  7  7  8  6  6  5  5  6  5  5  6  5  6
++         6  5  5  5  5  6  6  5  5  6  6  6  7  5  6  5  6
++         5  6  5  5  6 10 10 10 14  8  8  7  7  7  7  7  7
++         7  7  8  7  7  8  7  7  7  7  7  9  7 12  9  0  0
%c M  cc GPS ccc cccc cccc cccc cccc ccccc ccccc ccccc ccccc
%c cc cc ccc ccc cccc cccc cccc cccc ccccc ccccc ccccc ccccc
%f  0.0000000  0.000000000  0.00000000000  0.000000000000000
%f  0.0000000  0.000000000  0.00000000000  0.000000000000000
%i    0    0    0    0      0      0      0      0         0
%i    0    0    0    0      0      0      0      0         0
/* INFORMATION & ANALYSIS CENTER (IAC)            RAPID DATA
/* S/V CLOCKS ARE ALIGNED TO GNSS TIME                      
/* G:C1WC2W R:C1PC2P E:C1XC5X C:C2IC6I J:C1CC2S             
/* PCV:IGS14_2097 OL/AL:FES2004  NONE     YN ORB:CoN CLK:CoN
*  2020 04 12 18 15  0.00000000
PC01 -34331.364157  24446.453939   -487.085268   -610.830606
PC02   4395.804009  41932.219089   1175.837710    420.527397
PC03 -14727.510436  39550.021931    280.491256    361.414795
PC05  21914.374903  36042.788783    928.962800     35.787346
PC06  -8005.199639  32186.556621  26660.075125    244.095747
PC07 -20445.156164  22059.627571 -29526.924921    868.405080
PC08 -23033.973353  34832.289991   4484.736844   -198.463310
PC09   2959.762724  39847.619273  14306.461849    467.890976
PC10  -3685.084505  25876.288896 -32930.127838   -849.994070
PC11 -13822.919088   9378.415124 -22287.489250   -299.015970
PC12 -14699.738016 -12159.146836 -20341.294405    348.916905
PC13 -12182.833755  36207.782888  17657.325268    377.738584
PC14 -22589.218934   2600.971832  16249.644856    291.398692
PC16  -4224.911332  34384.182545  24225.466478   -683.086565
PC19  15370.862376  -9466.102136 -21244.537420    380.330880
PC20  25941.099053   4110.441637  -9361.749192   -913.385841
PC21 -21425.560118 -15746.456288  -8483.188638   -277.442165
PC22  -4364.815812 -17846.153340 -21002.593793   -837.698769
PC23  -6081.443827  20280.307824 -18179.685006   -914.599651
PC24 -23670.301744   4814.353359  13945.554089   -860.755462
PC25 -20510.047251  18600.557798  -3406.531586   -580.767486
PC26 -13128.454781 -10037.673173  22476.628368    641.606314
PC27  11771.198327  20945.657162  14198.768793    311.738509
PC28    650.765988  27762.377154  -2737.064707    302.740571
PC29  10121.865872 -18755.588668  18004.579674    213.997926
PC30  16087.150557   1626.355528  22744.751779    301.078615
PC32  21507.872447  15610.110567   8518.203933   -921.250017
PC33 -15420.223502   9536.648022  21231.190347   -872.146471
PC34 -16092.727821  -1093.449250 -22775.276283   -627.308911
PC35  -1475.249404 -27696.101261   2888.803745   -894.716519
PC36  21053.540142 -18034.031989   3207.914865   -821.971942
PC37  12359.466509  10787.144875 -22561.446178   -845.675744
PC43 -10458.265464  18508.623103 -18094.734745 999999.999999
PC46  23754.464932  -5343.382216 -13659.487288    889.163812
PE01  26108.138388 -11033.649795   8536.659247   -834.544939
PE02 -26047.603089  11085.317059  -8629.456087    125.987492
PE03 -15913.059833   7500.279372  23810.421661   -287.187697
PE04   -740.589827 -22027.608390 -19749.987251   -504.177959
PE05 -23405.938325 -11580.030539  13944.682083   -389.198673
PE07  17168.050660  23771.951410   4012.563167   -367.270374
PE08   1144.122747  22030.888662  19735.696038   6193.302589
PE09 -17422.641066 -23615.446142  -3919.487461   6095.155846
PE11  -5925.215831 -22018.980395 -18863.256248   2234.982317
PE12   8133.592746 -28402.985528  -1575.023050   5857.479614
PE13   5778.084357  22188.505608  18735.526830    400.011762
PE14 -21116.471677   2034.202177 -24777.053832   -975.221314
PE15  -7884.403069  28481.331002   1791.191778    870.703510
PE18  14905.102254  -2058.386453  17822.334672  -1073.741869
PE19  17171.262474  -5431.047441 -23483.076378   -486.478318
PE21  27794.763472   1234.027522 -10116.737828   -593.143617
PE24 -12985.273944 -13189.683220  23078.009238   5510.840871
PE25 -27748.375802  -1311.918886  10217.777262   -508.954324
PE26  16321.149229   2611.409184  24562.165702   3310.079067
PE27  13242.208103  13003.528311 -23063.218405    242.295834
PE30  -9387.478568  17075.708463 -22290.189968   3991.491006
PE31   9032.659903 -17092.464190  22417.160723   -472.261873
PE33  16940.499580 -18033.621773  16245.796047   -468.483147
PE36 -16061.622350  -2854.038360 -24691.752105    573.816196
PG01  14499.200746 -22018.472495   -958.068336   -355.727327
PG02 -18246.646329   7117.237212 -17271.964826   -438.325231
PG03  11522.441761 -13061.696551 -20077.043795   -143.854563
PG04   3542.308549 -20522.108152 -16458.212763    -75.265408
PG05 -26134.100831   2161.995972   4704.068957    -10.745852
PG06 -14471.097511  -4683.687819 -21726.388592   -251.288788
PG07    818.206663 -21091.535256  16116.294493   -257.152377
PG08  11296.607455 -10523.098630  21600.896558    -30.412246
PG09  -6090.811743 -24651.813643  -7809.749321   -196.410907
PG10  18931.155996  11669.011799  14782.426614   -308.119090
PG11  12536.793840 -19552.197019  12657.389498   -307.098809
PG12 -13874.401201  11389.463346 -19755.130617    130.003772
PG13 -15097.176834   1824.750770  21662.570904      1.589539
PG14  16745.808675  13288.555776 -15538.017576    -20.031187
PG15 -10532.244356  12373.535029  20648.210785   -238.446347
PG16  26074.519687    278.015668   5970.599800   -145.842131
PG17 -14162.190941 -20979.936925  -7700.957948    247.662190
PG18  -5200.427964  22597.907037  12939.496252    153.927138
PG19 -16168.761221 -14768.409995 -15334.264958   -172.975344
PG20   8198.662963  14738.557471  20479.730875    527.815306
PG21   1011.395639  21456.575941  16578.162867    -15.085405
PG22  19595.856737 -10665.871353 -14089.053223   -784.814438
PG23  -1055.119352 -22767.314694 -12952.121968   -122.619385
PG24 -14379.715832  22037.039062   1367.192092    -11.603329
PG25  -1732.967418  15120.502703 -21999.640590     -3.575018
PG26  25755.403513   4785.694475  -5088.549611    186.211111
PG27  16280.554346   1437.438571  20874.152036   -265.038421
PG28 -18696.052165 -12910.479432  14218.931411    725.876484
PG29   2557.709421  24454.718801 -10057.915426    -79.460009
PG30  -8626.728971 -14015.844292  20846.157493   -196.895810
PG31  16085.068288   3002.918732 -21039.649828    -35.596312
PG32  16129.027462  19384.917261  -8493.739336    258.136975
PJ01 -26405.435674  22572.350229  28929.064878   -324.884541
PJ02 -35562.849358  19887.387468  -6244.280379     -2.347773
PJ03 -20073.435676  26016.124779 -21837.483661     -1.926804
PJ07 -25405.354751  33662.623166     51.582549      0.019781
PR01  -6686.007423   8883.622167  22963.466378     59.926303
PR02  12917.806223  16979.649524  14068.232672    421.491960
PR03  21681.773306  13185.260379  -2784.423397     13.187385
PR04  17953.308253   2005.792755 -17979.080695     45.349710
PR05   4116.718670 -10256.295592 -22973.526694     48.517925
PR07 -21742.966679 -12837.360315   3512.376312    -35.388367
PR08 -17989.640846  -1891.012788  18036.012241    -51.590583
PR09  -5437.447151  -9832.501745  22911.472455    126.914627
PR11 -23364.223544   9973.207925   2565.499795    -19.963222
PR12 -15662.237165  14770.217175 -13641.202117    122.010426
PR13   1541.133991  11338.368773 -22818.614298    -37.312944
PR14  17661.438153   1255.473361 -18350.582465     50.094515
PR15  23441.695156  -9462.611589  -3410.550890    106.322107
PR16  15040.294010 -15217.825873  13958.394815     -2.759374
PR17   8647.567286  11713.878084  20945.229861    316.791608
PR18  10595.196509  -6704.634662  22217.167407     31.795674
PR19   7578.941117 -21245.838830  11907.138624    -88.362552
PR20   -780.434979 -24321.653108  -7556.624226   -408.991700
PR21  -8789.491920 -10859.867838 -21345.448993   -117.582427
PR22 -10385.891724   9669.662007 -21224.071784      3.807113
PR23  -4648.465808  24444.499828  -5642.553520    298.755164
PR24   1433.205733  24109.683465   8216.945436     -6.110497
PR26    786.915135 -25322.839250  -3053.761537   -399.715960
EOF
